[{"OBJECT_NAME":"YAOGAN-32 02B","OBJECT_ID":"2021-099B","EPOCH":"2026-03-09T22:33:19.291104","MEAN_MOTION":14.64050838,"ECCENTRICITY":0.00012785,"INCLINATION":98.2293,"RA_OF_ASC_NODE":202.7352,"ARG_OF_PERICENTER":124.0127,"MEAN_ANOMALY":236.1197,"EPHEMERIS_TYPE":0,"CLASSIFICATION_TYPE":"U","NORAD_CAT_ID":49384,"ELEMENT_SET_NO":999,"REV_AT_EPOCH":23184,"BSTAR":0.000246305,"MEAN_MOTION_DOT":1.244e-5,"MEAN_MOTION_DDOT":0},{"OBJECT_NAME":"COSMOS 1900 DEB","OBJECT_ID":"1987-101D","EPOCH":"2026-03-09T04:22:16.555584","MEAN_MOTION":14.60059002,"ECCENTRICITY":0.00302671,"INCLINATION":66.0796,"RA_OF_ASC_NODE":269.9064,"ARG_OF_PERICENTER":169.0383,"MEAN_ANOMALY":191.1392,"EPHEMERIS_TYPE":0,"CLASSIFICATION_TYPE":"U","NORAD_CAT_ID":43499,"ELEMENT_SET_NO":999,"REV_AT_EPOCH":58014,"BSTAR":0.00021295757,"MEAN_MOTION_DOT":9.25e-6,"MEAN_MOTION_DDOT":0}]
